[{"OBJECT_NAME":"STARLINK-4140","OBJECT_ID":"2022-086T","EPOCH":"2026-03-09T15:26:25.197216","MEAN_MOTION":15.08836749,"ECCENTRICITY":0.0001174,"INCLINATION":53.217,"RA_OF_ASC_NODE":193.9708,"ARG_OF_PERICENTER":93.4607,"MEAN_ANOMALY":266.652,"EPHEMERIS_TYPE":0,"CLASSIFICATION_TYPE":"U","NORAD_CAT_ID":53259,"ELEMENT_SET_NO":999,"REV_AT_EPOCH":20106,"BSTAR":9.1045e-6,"MEAN_MOTION_DOT":-1.43e-6,"MEAN_MOTION_DDOT":0},{"OBJECT_NAME":"STARLINK-6085","OBJECT_ID":"2023-090Q","EPOCH":"2026-03-09T12:53:56.600160","MEAN_MOTION":15.13089153,"ECCENTRICITY":0.00193829,"INCLINATION":42.9983,"RA_OF_ASC_NODE":264.1938,"ARG_OF_PERICENTER":205.4773,"MEAN_ANOMALY":154.5119,"EPHEMERIS_TYPE":0,"CLASSIFICATION_TYPE":"U","NORAD_CAT_ID":57115,"ELEMENT_SET_NO":999,"REV_AT_EPOCH":15052,"BSTAR":0.0015301514,"MEAN_MOTION_DOT":0.00027564,"MEAN_MOTION_DDOT":0}]
